#aV2022 12  1  0  0  0.00000000     288 DD+AD WGS84 FIT  NGA
## 2238 345600.00000000   300.00000000 59914 0.0000000000000
+   31     1  2  3  4  5  6  7  8  9 10 11 12 13 14 15 16 17
+         18 19 20 21 22 23 24 25 26 27 29 30 31 32  0  0  0
+          0  0  0  0  0  0  0  0  0  0  0  0  0  0  0  0  0
+          0  0  0  0  0  0  0  0  0  0  0  0  0  0  0  0  0
+          0  0  0  0  0  0  0  0  0  0  0  0  0  0  0  0  0
++         2  2  2  2  2  2  2  2  2  2  2  2  2  2  2  2  2
++         2  2  2  2  2  2  2  2  2  2  2  2  2  2  0  0  0
++         0  0  0  0  0  0  0  0  0  0  0  0  0  0  0  0  0
++         0  0  0  0  0  0  0  0  0  0  0  0  0  0  0  0  0
++         0  0  0  0  0  0  0  0  0  0  0  0  0  0  0  0  0
%c cc cc ccc ccc cccc cccc cccc cccc ccccc ccccc ccccc ccccc
%c cc cc ccc ccc cccc cccc cccc cccc ccccc ccccc ccccc ccccc
%f  0.0000000  0.000000000  0.00000000000  0.000000000000000
%f  0.0000000  0.000000000  0.00000000000  0.000000000000000
%i    0    0    0    0      0      0      0      0         0
%i    0    0    0    0      0      0      0      0         0
/*      NGA, ST. LOUIS,MO.                                  
/*   EPHEMERIS COMPUTED FROM 2 DAYS OF DATA                 
/*   EPOCHA v8 SMOOTHER                                     
/*   G2139 IERS2010 SATIGS SATAPC                           
*  2022 12  1  1  0  0.00000000
P  1  14025.248546 -22006.325443   3508.278661    244.066697                    
V  1   -285.201268   5343.931980  32188.679840     -0.054292                    
P  2 -10501.847132  24471.392457   -835.673098   -635.321347                    
V  2  -1619.953223  -2611.066848 -31736.832105      0.018574                    
P  3  16803.383398 -12240.715889 -16592.725765   -374.793200                    
V  3  20896.886679    298.000740  21200.572362     -0.009800                    
P  4   6282.465906 -16357.348310 -19927.978264    -76.903881                    
V  4  14240.439361  20988.254027 -12840.524136      0.069090                    
P  5 -25486.196407   5952.847394   4702.728910   -106.338123                    
V  5  -6403.434263  -1935.041967 -30996.067522     -0.014618                    
P  6 -10698.577937 -10619.738964 -21789.605001    530.532665                    
V  6  12928.711308 -24573.998389   5687.455993      0.083792                    
P  7   3752.291278 -24039.228983  10460.240390    280.621670                    
V  7   8498.028657 -10112.814140 -27885.496272     -0.050556                    
P  8  14196.387243  -6029.167663  21607.645147    -96.407472                    
V  8  15584.571794  22667.050920  -3539.923390     -0.019179                    
P  9  -4444.496457 -22707.740609 -13080.709229   -260.581147                    
V  9  11373.376408  12208.444390 -25257.607553      0.058742                    
P 10  15220.832294  11681.287788  18662.756975    -14.146030                    
V 10 -23100.845415   2486.053883  17126.212180     -0.016196                    
P 11 -17139.893763   1841.014631 -20188.005578    -48.653702                    
V 11  11745.574409 -22827.678347 -12084.898782     -0.067459                    
P 12 -18203.636333  10946.577025 -16150.866898   -310.561686                    
V 12 -20016.691209  -1955.994431  21700.195071     -0.045215                    
P 13 -16807.212846  -2891.373572  20235.201198    434.067282                    
V 13 -10444.062461 -23841.805756 -11795.168307      0.066776                    
P 14 -12569.135710 -13402.999195  19226.021972    -75.337782                    
V 14  24349.503614  -2005.488597  14409.894362      0.057655                    
P 15 -13587.074624   8099.761189  20908.474014     -7.923785                    
V 15 -18005.276778 -21041.180796  -3196.334914      0.032019                    
P 16  26802.236990    415.364655    501.379582   -526.648363                    
V 16    906.880391   2250.251303 -31583.732521      0.003035                    
P 17 -12513.302628 -23365.179741   1187.332930    682.301997                    
V 17   2549.087762   -343.223039  32105.769254      0.029785                    
P 18  -2908.486610  23370.388177  12140.343709    -41.868397                    
V 18  -9053.294518  12694.495878 -26746.080935     -0.143452                    
P 19 -17157.805070 -17665.310096 -10517.901840    244.480312                    
V 19  -4312.707930 -12299.043509  28060.462673      0.050713                    
P 20 -25169.334747   -259.893603  -8091.926254    466.554071                    
V 20   9412.120630  -5452.424606 -29250.959736     -0.024996                    
P 21  16330.152543 -16281.044692  13064.336639    154.888565                    
V 21  -3458.257187  15765.815229  25895.570461     -0.008623                    
P 22  17903.984581  15409.732918 -11894.503231    375.452097                    
V 22   5502.610751  14887.600223  26454.959094      0.077673                    
P 23   3136.126168  14725.078635  21882.149485     -0.555185                    
V 23 -27635.720990   2575.236927   2090.879294      0.004270                    
P 24 -14451.511382  20420.047310   7924.059557     36.039056                    
V 24    407.850298 -11331.271311  29142.048190     -0.167621                    
P 25  -7162.100188  15237.814666 -20776.285775    397.763682                    
V 25 -25802.935103    799.931477   9897.745476      0.036095                    
P 26  23937.697682   5085.252930 -10823.807283    237.285961                    
V 26 -13086.676131   4467.932505 -26754.056986      0.009846                    
P 27  18745.398901   6270.263031  17712.471127    165.084444                    
V 27  11499.416339  19682.205080 -18507.988618     -0.097709                    
P 29   1031.714172  22113.694976 -14656.761373   -570.902598                    
V 29 -10527.785985 -15352.296352 -24048.319663     -0.026673                    
P 30  -5840.979626 -18244.418771  18382.515629   -536.085825                    
V 30  12440.285839 -19840.964279 -16071.446429      0.005012                    
P 31  12505.212083   9195.614283 -21680.991212   -201.865481                    
V 31 -13129.996629  23840.726618   3012.527031     -0.012001                    
P 32  15849.777535  21367.239877  -1730.877276   -314.115265                    
V 32   -933.657637   3483.848636  31473.608558     -0.129366                    
EOF
